ONEWEB-0600             
1 54664U 22166Y   26090.22648266 -.00000084  00000+0 -23546-3 0  9991
2 54664  87.9171 259.5157 0001850 102.0354 258.0988 13.21825315161215
ONEWEB-0601             
1 54665U 22166Z   26090.21822478  .00001208  00000+0  28934-2 0  9992
2 54665  87.9164 259.5344 0001620 102.8389 257.2926 13.21835224161401
ONEWEB-0602             
1 54666U 22166AA  26089.95578899  .00000091  00000+0  18890-3 0  9997
2 54666  87.9175 259.5928 0001933 103.5760 256.5589 13.21825652161210
ONEWEB-0603             
1 54667U 22166AB  26089.96154574  .00000014  00000+0  19394-5 0  9996
2 54667  87.9187 259.5398 0001664 100.9762 259.1559 13.21825731161145
ONEWEB-0604             
1 54668U 22166AC  26089.95003409  .00000065  00000+0  12591-3 0  9992
2 54668  87.9187 259.5568 0001783  94.8446 265.2891 13.21826788161103
ONEWEB-0605             
1 54669U 22166AD  26089.94343956  .00000027  00000+0  33260-4 0  9991
2 54669  87.9174 259.5795 0001152 103.9072 256.2190 13.21826375161170
ONEWEB-0606             
1 54670U 22166AE  26089.96482140  .00000040  00000+0  65940-4 0  9999
2 54670  87.9175 259.5880 0001743  91.2592 268.8742 13.21823832161234
ONEWEB-0607             
1 54671U 22166AF  26090.15899399  .00000024  00000+0  25560-4 0  9997
2 54671  87.9179 259.5151 0001662 102.0606 258.0715 13.21828589161232
ONEWEB-0608             
1 54672U 22166AG  26089.93850082  .00000026  00000+0  30787-4 0  9997
2 54672  87.9184 259.5534 0001319 110.3487 249.7789 13.21825911161214
ONEWEB-0610             
1 54673U 22166AH  26090.22153832  .00000068  00000+0  13411-3 0  9991
2 54673  87.9173 259.5192 0001412 118.8197 241.3079 13.21826396161159
ONEWEB-0611             
1 54674U 22166AJ  26089.98787451  .00000066  00000+0  12795-3 0  9995
2 54674  87.9172 259.5624 0001841  93.0968 267.0377 13.21826009161118
ONEWEB-0612             
1 54675U 22166AK  26089.92532592  .00000003  00000+0 -23447-4 0  9993
2 54675  87.9184 259.5613 0001644 100.8662 259.2657 13.21824216161098
ONEWEB-0615             
1 54676U 22166AL  26090.20836620  .00000008  00000+0 -11988-4 0  9998
2 54676  87.9176 259.5268 0001702  97.1943 262.9385 13.21824275161141
ONEWEB-0655             
1 54677U 22166AM  26089.95660148  .00000057  00000+0  10603-3 0  9994
2 54677  87.9174 259.5789 0001832 105.0238 255.1099 13.21825709161103
ONEWEB-0659             
1 54678U 22166AN  26089.97304957  .00000077  00000+0  15593-3 0  9995
2 54678  87.9173 259.5758 0001668  93.8225 266.3100 13.21824498161196
ONEWEB-0685             
1 54679U 22166AP  26089.97366081  .00000089  00000+0  18317-3 0  9992
2 54679  87.9169 259.5704 0001694 102.9800 257.1523 13.21814128161087
