[{"OBJECT_NAME":"ONEWEB-0600","OBJECT_ID":"2022-166Y","EPOCH":"2026-03-31T05:26:08.101824","MEAN_MOTION":13.21825315,"ECCENTRICITY":0.000185,"INCLINATION":87.9171,"RA_OF_ASC_NODE":259.5157,"ARG_OF_PERICENTER":102.0354,"MEAN_ANOMALY":258.0988,"EPHEMERIS_TYPE":0,"CLASSIFICATION_TYPE":"U","NORAD_CAT_ID":54664,"ELEMENT_SET_NO":999,"REV_AT_EPOCH":16121,"BSTAR":-0.00023546,"MEAN_MOTION_DOT":-8.4e-07,"MEAN_MOTION_DDOT":0.0},{"OBJECT_NAME":"ONEWEB-0601","OBJECT_ID":"2022-166Z","EPOCH":"2026-03-31T05:14:14.620992","MEAN_MOTION":13.21835224,"ECCENTRICITY":0.000162,"INCLINATION":87.9164,"RA_OF_ASC_NODE":259.5344,"ARG_OF_PERICENTER":102.8389,"MEAN_ANOMALY":257.2926,"EPHEMERIS_TYPE":0,"CLASSIFICATION_TYPE":"U","NORAD_CAT_ID":54665,"ELEMENT_SET_NO":999,"REV_AT_EPOCH":16140,"BSTAR":0.0028934,"MEAN_MOTION_DOT":1.208e-05,"MEAN_MOTION_DDOT":0.0},{"OBJECT_NAME":"ONEWEB-0602","OBJECT_ID":"2022-166AA","EPOCH":"2026-03-30T22:56:20.168736","MEAN_MOTION":13.21825652,"ECCENTRICITY":0.0001933,"INCLINATION":87.9175,"RA_OF_ASC_NODE":259.5928,"ARG_OF_PERICENTER":103.576,"MEAN_ANOMALY":256.5589,"EPHEMERIS_TYPE":0,"CLASSIFICATION_TYPE":"U","NORAD_CAT_ID":54666,"ELEMENT_SET_NO":999,"REV_AT_EPOCH":16121,"BSTAR":0.0001889,"MEAN_MOTION_DOT":9.1e-07,"MEAN_MOTION_DDOT":0.0},{"OBJECT_NAME":"ONEWEB-0603","OBJECT_ID":"2022-166AB","EPOCH":"2026-03-30T23:04:37.551936","MEAN_MOTION":13.21825731,"ECCENTRICITY":0.0001664,"INCLINATION":87.9187,"RA_OF_ASC_NODE":259.5398,"ARG_OF_PERICENTER":100.9762,"MEAN_ANOMALY":259.1559,"EPHEMERIS_TYPE":0,"CLASSIFICATION_TYPE":"U","NORAD_CAT_ID":54667,"ELEMENT_SET_NO":999,"REV_AT_EPOCH":16114,"BSTAR":1.9394e-06,"MEAN_MOTION_DOT":1.4e-07,"MEAN_MOTION_DDOT":0.0},{"OBJECT_NAME":"ONEWEB-0604","OBJECT_ID":"2022-166AC","EPOCH":"2026-03-30T22:48:02.945376","MEAN_MOTION":13.21826788,"ECCENTRICITY":0.0001783,"INCLINATION":87.9187,"RA_OF_ASC_NODE":259.5568,"ARG_OF_PERICENTER":94.8446,"MEAN_ANOMALY":265.2891,"EPHEMERIS_TYPE":0,"CLASSIFICATION_TYPE":"U","NORAD_CAT_ID":54668,"ELEMENT_SET_NO":999,"REV_AT_EPOCH":16110,"BSTAR":0.00012591,"MEAN_MOTION_DOT":6.5e-07,"MEAN_MOTION_DDOT":0.0},{"OBJECT_NAME":"ONEWEB-0605","OBJECT_ID":"2022-166AD","EPOCH":"2026-03-30T22:38:33.177984","MEAN_MOTION":13.21826375,"ECCENTRICITY":0.0001152,"INCLINATION":87.9174,"RA_OF_ASC_NODE":259.5795,"ARG_OF_PERICENTER":103.9072,"MEAN_ANOMALY":256.219,"EPHEMERIS_TYPE":0,"CLASSIFICATION_TYPE":"U","NORAD_CAT_ID":54669,"ELEMENT_SET_NO":999,"REV_AT_EPOCH":16117,"BSTAR":3.3260000000000003e-05,"MEAN_MOTION_DOT":2.7e-07,"MEAN_MOTION_DDOT":0.0},{"OBJECT_NAME":"ONEWEB-0606","OBJECT_ID":"2022-166AE","EPOCH":"2026-03-30T23:09:20.568960","MEAN_MOTION":13.21823832,"ECCENTRICITY":0.0001743,"INCLINATION":87.9175,"RA_OF_ASC_NODE":259.588,"ARG_OF_PERICENTER":91.2592,"MEAN_ANOMALY":268.8742,"EPHEMERIS_TYPE":0,"CLASSIFICATION_TYPE":"U","NORAD_CAT_ID":54670,"ELEMENT_SET_NO":999,"REV_AT_EPOCH":16123,"BSTAR":6.594e-05,"MEAN_MOTION_DOT":4e-07,"MEAN_MOTION_DDOT":0.0},{"OBJECT_NAME":"ONEWEB-0607","OBJECT_ID":"2022-166AF","EPOCH":"2026-03-31T03:48:57.080736","MEAN_MOTION":13.21828589,"ECCENTRICITY":0.0001662,"INCLINATION":87.9179,"RA_OF_ASC_NODE":259.5151,"ARG_OF_PERICENTER":102.0606,"MEAN_ANOMALY":258.0715,"EPHEMERIS_TYPE":0,"CLASSIFICATION_TYPE":"U","NORAD_CAT_ID":54671,"ELEMENT_SET_NO":999,"REV_AT_EPOCH":16123,"BSTAR":2.556e-05,"MEAN_MOTION_DOT":2.4e-07,"MEAN_MOTION_DDOT":0.0},{"OBJECT_NAME":"ONEWEB-0608","OBJECT_ID":"2022-166AG","EPOCH":"2026-03-30T22:31:26.470848","MEAN_MOTION":13.21825911,"ECCENTRICITY":0.0001319,"INCLINATION":87.9184,"RA_OF_ASC_NODE":259.5534,"ARG_OF_PERICENTER":110.3487,"MEAN_ANOMALY":249.7789,"EPHEMERIS_TYPE":0,"CLASSIFICATION_TYPE":"U","NORAD_CAT_ID":54672,"ELEMENT_SET_NO":999,"REV_AT_EPOCH":16121,"BSTAR":3.0787e-05,"MEAN_MOTION_DOT":2.6e-07,"MEAN_MOTION_DDOT":0.0},{"OBJECT_NAME":"ONEWEB-0610","OBJECT_ID":"2022-166AH","EPOCH":"2026-03-31T05:19:00.910848","MEAN_MOTION":13.21826396,"ECCENTRICITY":0.0001412,"INCLINATION":87.9173,"RA_OF_ASC_NODE":259.5192,"ARG_OF_PERICENTER":118.8197,"MEAN_ANOMALY":241.3079,"EPHEMERIS_TYPE":0,"CLASSIFICATION_TYPE":"U","NORAD_CAT_ID":54673,"ELEMENT_SET_NO":999,"REV_AT_EPOCH":16115,"BSTAR":0.00013411,"MEAN_MOTION_DOT":6.8e-07,"MEAN_MOTION_DDOT":0.0},{"OBJECT_NAME":"ONEWEB-0611","OBJECT_ID":"2022-166AJ","EPOCH":"2026-03-30T23:42:32.357664","MEAN_MOTION":13.21826009,"ECCENTRICITY":0.0001841,"INCLINATION":87.9172,"RA_OF_ASC_NODE":259.5624,"ARG_OF_PERICENTER":93.0968,"MEAN_ANOMALY":267.0377,"EPHEMERIS_TYPE":0,"CLASSIFICATION_TYPE":"U","NORAD_CAT_ID":54674,"ELEMENT_SET_NO":999,"REV_AT_EPOCH":16111,"BSTAR":0.00012795000000000002,"MEAN_MOTION_DOT":6.6e-07,"MEAN_MOTION_DDOT":0.0},{"OBJECT_NAME":"ONEWEB-0612","OBJECT_ID":"2022-166AK","EPOCH":"2026-03-30T22:12:28.159488","MEAN_MOTION":13.21824216,"ECCENTRICITY":0.0001644,"INCLINATION":87.9184,"RA_OF_ASC_NODE":259.5613,"ARG_OF_PERICENTER":100.8662,"MEAN_ANOMALY":259.2657,"EPHEMERIS_TYPE":0,"CLASSIFICATION_TYPE":"U","NORAD_CAT_ID":54675,"ELEMENT_SET_NO":999,"REV_AT_EPOCH":16109,"BSTAR":-2.3447e-05,"MEAN_MOTION_DOT":3e-08,"MEAN_MOTION_DDOT":0.0},{"OBJECT_NAME":"ONEWEB-0615","OBJECT_ID":"2022-166AL","EPOCH":"2026-03-31T05:00:02.839680","MEAN_MOTION":13.21824275,"ECCENTRICITY":0.0001702,"INCLINATION":87.9176,"RA_OF_ASC_NODE":259.5268,"ARG_OF_PERICENTER":97.1943,"MEAN_ANOMALY":262.9385,"EPHEMERIS_TYPE":0,"CLASSIFICATION_TYPE":"U","NORAD_CAT_ID":54676,"ELEMENT_SET_NO":999,"REV_AT_EPOCH":16114,"BSTAR":-1.1988000000000001e-05,"MEAN_MOTION_DOT":8e-08,"MEAN_MOTION_DDOT":0.0},{"OBJECT_NAME":"ONEWEB-0655","OBJECT_ID":"2022-166AM","EPOCH":"2026-03-30T22:57:30.367872","MEAN_MOTION":13.21825709,"ECCENTRICITY":0.0001832,"INCLINATION":87.9174,"RA_OF_ASC_NODE":259.5789,"ARG_OF_PERICENTER":105.0238,"MEAN_ANOMALY":255.1099,"EPHEMERIS_TYPE":0,"CLASSIFICATION_TYPE":"U","NORAD_CAT_ID":54677,"ELEMENT_SET_NO":999,"REV_AT_EPOCH":16110,"BSTAR":0.00010603,"MEAN_MOTION_DOT":5.7e-07,"MEAN_MOTION_DDOT":0.0},{"OBJECT_NAME":"ONEWEB-0659","OBJECT_ID":"2022-166AN","EPOCH":"2026-03-30T23:21:11.482848","MEAN_MOTION":13.21824498,"ECCENTRICITY":0.0001668,"INCLINATION":87.9173,"RA_OF_ASC_NODE":259.5758,"ARG_OF_PERICENTER":93.8225,"MEAN_ANOMALY":266.31,"EPHEMERIS_TYPE":0,"CLASSIFICATION_TYPE":"U","NORAD_CAT_ID":54678,"ELEMENT_SET_NO":999,"REV_AT_EPOCH":16119,"BSTAR":0.00015593,"MEAN_MOTION_DOT":7.7e-07,"MEAN_MOTION_DDOT":0.0},{"OBJECT_NAME":"ONEWEB-0685","OBJECT_ID":"2022-166AP","EPOCH":"2026-03-30T23:22:04.293984","MEAN_MOTION":13.21814128,"ECCENTRICITY":0.0001694,"INCLINATION":87.9169,"RA_OF_ASC_NODE":259.5704,"ARG_OF_PERICENTER":102.98,"MEAN_ANOMALY":257.1523,"EPHEMERIS_TYPE":0,"CLASSIFICATION_TYPE":"U","NORAD_CAT_ID":54679,"ELEMENT_SET_NO":999,"REV_AT_EPOCH":16108,"BSTAR":0.00018317,"MEAN_MOTION_DOT":8.9e-07,"MEAN_MOTION_DDOT":0.0}]